{
  "type": "FeatureCollection",
  "features": [
    {
      "type": "Feature",
      "properties": {
        "norad_id": 37320,
        "name": "COSMOS 2251 DEB",
        "group": "cosmos-2251-debris",
        "lat": -33.43447319112915,
        "lon": 56.76393515395451,
        "alt_km": 644.0906181250948,
        "timestamp": "2025-12-08T19:31:49.204584+00:00",
        "meta_object_name": "COSMOS 2251 DEB",
        "meta_object_id": "1993-036BKL",
        "meta_epoch": "2025-12-07T10:04:58.850112",
        "meta_mean_motion": 14.78679149,
        "meta_eccentricity": 0.00469494,
        "meta_inclination": 74.0461,
        "meta_ra_of_asc_node": 228.6135,
        "meta_arg_of_pericenter": 316.7124,
        "meta_mean_anomaly": 43.0365,
        "meta_ephemeris_type": 0,
        "meta_classification_type": "U",
        "meta_norad_cat_id": 37320,
        "meta_element_set_no": 999,
        "meta_rev_at_epoch": 66068,
        "meta_bstar": 0.0013976753,
        "meta_mean_motion_dot": 0.00010421,
        "meta_mean_motion_ddot": 0,
        "tle_line1": "1 37320U 93036BKL 25341.42012558  .00010421  00000+0  13977-2 0  9994",
        "tle_line2": "2 37320  74.0461 228.6135 0046949 316.7124  43.0365 14.78679149660685"
      },
      "geometry": {
        "type": "Point",
        "coordinates": [
          56.76393515395451,
          -33.43447319112915
        ]
      }
    },
    {
      "type": "Feature",
      "properties": {
        "norad_id": 37326,
        "name": "COSMOS 2251 DEB",
        "group": "cosmos-2251-debris",
        "lat": -52.91566696587141,
        "lon": -40.06106624026645,
        "alt_km": 732.7975206023557,
        "timestamp": "2025-12-08T19:31:49.204593+00:00",
        "meta_object_name": "COSMOS 2251 DEB",
        "meta_object_id": "1993-036BKS",
        "meta_epoch": "2025-12-08T06:38:46.757184",
        "meta_mean_motion": 14.61542135,
        "meta_eccentricity": 0.00548591,
        "meta_inclination": 74.0258,
        "meta_ra_of_asc_node": 343.2358,
        "meta_arg_of_pericenter": 113.6246,
        "meta_mean_anomaly": 247.0694,
        "meta_ephemeris_type": 0,
        "meta_classification_type": "U",
        "meta_norad_cat_id": 37326,
        "meta_element_set_no": 999,
        "meta_rev_at_epoch": 85418,
        "meta_bstar": 0.00074811133,
        "meta_mean_motion_dot": 3.765e-05,
        "meta_mean_motion_ddot": 0,
        "tle_line1": "1 37326U 93036BKS 25342.27693006  .00003765  00000+0  74811-3 0  9995",
        "tle_line2": "2 37326  74.0258 343.2358 0054859 113.6246 247.0694 14.61542135854181"
      },
      "geometry": {
        "type": "Point",
        "coordinates": [
          -40.06106624026645,
          -52.91566696587141
        ]
      }
    },
    {
      "type": "Feature",
      "properties": {
        "norad_id": 37330,
        "name": "COSMOS 2251 DEB",
        "group": "cosmos-2251-debris",
        "lat": -29.35445622356431,
        "lon": -66.69377052532826,
        "alt_km": 740.6822861928958,
        "timestamp": "2025-12-08T19:31:49.204602+00:00",
        "meta_object_name": "COSMOS 2251 DEB",
        "meta_object_id": "1993-036BKW",
        "meta_epoch": "2025-12-08T06:30:41.728320",
        "meta_mean_motion": 14.59520062,
        "meta_eccentricity": 0.00571919,
        "meta_inclination": 74.0173,
        "meta_ra_of_asc_node": 303.6176,
        "meta_arg_of_pericenter": 153.3924,
        "meta_mean_anomaly": 207.0198,
        "meta_ephemeris_type": 0,
        "meta_classification_type": "U",
        "meta_norad_cat_id": 37330,
        "meta_element_set_no": 999,
        "meta_rev_at_epoch": 86303,
        "meta_bstar": 0.00056776648,
        "meta_mean_motion_dot": 2.729e-05,
        "meta_mean_motion_ddot": 0,
        "tle_line1": "1 37330U 93036BKW 25342.27131630  .00002729  00000+0  56777-3 0  9990",
        "tle_line2": "2 37330  74.0173 303.6176 0057191 153.3924 207.0198 14.59520062863037"
      },
      "geometry": {
        "type": "Point",
        "coordinates": [
          -66.69377052532826,
          -29.35445622356431
        ]
      }
    },
    {
      "type": "Feature",
      "properties": {
        "norad_id": 37331,
        "name": "COSMOS 2251 DEB",
        "group": "cosmos-2251-debris",
        "lat": 70.15594114811412,
        "lon": 127.34209488397538,
        "alt_km": 729.1886387786144,
        "timestamp": "2025-12-08T19:31:49.204611+00:00",
        "meta_object_name": "COSMOS 2251 DEB",
        "meta_object_id": "1993-036BKX",
        "meta_epoch": "2025-12-07T13:03:14.035680",
        "meta_mean_motion": 14.35000366,
        "meta_eccentricity": 0.00554499,
        "meta_inclination": 74.0747,
        "meta_ra_of_asc_node": 77.37,
        "meta_arg_of_pericenter": 93.3807,
        "meta_mean_anomaly": 267.3691,
        "meta_ephemeris_type": 0,
        "meta_classification_type": "U",
        "meta_norad_cat_id": 37331,
        "meta_element_set_no": 999,
        "meta_rev_at_epoch": 84685,
        "meta_bstar": 0.0010030758,
        "meta_mean_motion_dot": 2.883e-05,
        "meta_mean_motion_ddot": 0,
        "tle_line1": "1 37331U 93036BKX 25341.54391245  .00002883  00000+0  10031-2 0  9993",
        "tle_line2": "2 37331  74.0747  77.3700 0055449  93.3807 267.3691 14.35000366846852"
      },
      "geometry": {
        "type": "Point",
        "coordinates": [
          127.34209488397538,
          70.15594114811412
        ]
      }
    },
    {
      "type": "Feature",
      "properties": {
        "norad_id": 37336,
        "name": "COSMOS 2251 DEB",
        "group": "cosmos-2251-debris",
        "lat": 74.01924221677163,
        "lon": 70.70411446855495,
        "alt_km": 757.8455443709772,
        "timestamp": "2025-12-08T19:31:49.204620+00:00",
        "meta_object_name": "COSMOS 2251 DEB",
        "meta_object_id": "1993-036BLC",
        "meta_epoch": "2025-12-01T07:48:14.136768",
        "meta_mean_motion": 14.32750931,
        "meta_eccentricity": 0.00286304,
        "meta_inclination": 74.0414,
        "meta_ra_of_asc_node": 352.0528,
        "meta_arg_of_pericenter": 73.4193,
        "meta_mean_anomaly": 287.0099,
        "meta_ephemeris_type": 0,
        "meta_classification_type": "U",
        "meta_norad_cat_id": 37336,
        "meta_element_set_no": 999,
        "meta_rev_at_epoch": 64956,
        "meta_bstar": 8.422431e-05,
        "meta_mean_motion_dot": 2.05e-06,
        "meta_mean_motion_ddot": 0,
        "tle_line1": "1 37336U 93036BLC 25335.32516362  .00000205  00000+0  84224-4 0  9999",
        "tle_line2": "2 37336  74.0414 352.0528 0028630  73.4193 287.0099 14.32750931649565"
      },
      "geometry": {
        "type": "Point",
        "coordinates": [
          70.70411446855495,
          74.01924221677163
        ]
      }
    },
    {
      "type": "Feature",
      "properties": {
        "norad_id": 37340,
        "name": "COSMOS 2251 DEB",
        "group": "cosmos-2251-debris",
        "lat": -65.93324777359193,
        "lon": 144.27542020817637,
        "alt_km": 783.3584855750678,
        "timestamp": "2025-12-08T19:31:49.204629+00:00",
        "meta_object_name": "COSMOS 2251 DEB",
        "meta_object_id": "1993-036BLG",
        "meta_epoch": "2025-12-05T05:08:42.934848",
        "meta_mean_motion": 14.36908075,
        "meta_eccentricity": 0.00174259,
        "meta_inclination": 74.0249,
        "meta_ra_of_asc_node": 290.9993,
        "meta_arg_of_pericenter": 27.9023,
        "meta_mean_anomaly": 332.3061,
        "meta_ephemeris_type": 0,
        "meta_classification_type": "U",
        "meta_norad_cat_id": 37340,
        "meta_element_set_no": 999,
        "meta_rev_at_epoch": 83959,
        "meta_bstar": 0.00037521661,
        "meta_mean_motion_dot": 1.086e-05,
        "meta_mean_motion_ddot": 0,
        "tle_line1": "1 37340U 93036BLG 25339.21438582  .00001086  00000+0  37522-3 0  9999",
        "tle_line2": "2 37340  74.0249 290.9993 0017425  27.9023 332.3061 14.36908075839593"
      },
      "geometry": {
        "type": "Point",
        "coordinates": [
          144.27542020817637,
          -65.93324777359193
        ]
      }
    },
    {
      "type": "Feature",
      "properties": {
        "norad_id": 37483,
        "name": "COSMOS 2251 DEB",
        "group": "cosmos-2251-debris",
        "lat": -73.96160135880925,
        "lon": 59.94177169301729,
        "alt_km": 751.1290303248607,
        "timestamp": "2025-12-08T19:31:49.204638+00:00",
        "meta_object_name": "COSMOS 2251 DEB",
        "meta_object_id": "1993-036BLL",
        "meta_epoch": "2025-12-06T21:22:19.313184",
        "meta_mean_motion": 14.43543029,
        "meta_eccentricity": 0.00928393,
        "meta_inclination": 73.9727,
        "meta_ra_of_asc_node": 154.2477,
        "meta_arg_of_pericenter": 2.0807,
        "meta_mean_anomaly": 358.0716,
        "meta_ephemeris_type": 0,
        "meta_classification_type": "U",
        "meta_norad_cat_id": 37483,
        "meta_element_set_no": 999,
        "meta_rev_at_epoch": 65195,
        "meta_bstar": 0.00034556267,
        "meta_mean_motion_dot": 1.204e-05,
        "meta_mean_motion_ddot": 0,
        "tle_line1": "1 37483U 93036BLL 25340.89050131  .00001204  00000+0  34556-3 0  9999",
        "tle_line2": "2 37483  73.9727 154.2477 0092839   2.0807 358.0716 14.43543029651951"
      },
      "geometry": {
        "type": "Point",
        "coordinates": [
          59.94177169301729,
          -73.96160135880925
        ]
      }
    }
  ]
}